CSS (TIANHE)            
1 48274U 21035A   24055.91548366  .00039275  00000+0  43225-3 0  9998
2 48274  41.4685  55.2608 0007952  21.4263 338.6908 15.62350977161361
